start=new Date('2022-12-19T00:00:00.000Z').valueOf();
sats=[{"PERIOD":"95.438","MEAN_ANOMALY":"320.4951","EPOCH":"2022-12-18T04:10:44.429376","OBJECT_TYPE":"PAYLOAD","BSTAR":"-0.00012870000000","EPHEMERIS_TYPE":"0","MEAN_MOTION_DOT":"-0.00002335","RCS_SIZE":"MEDIUM","FILE":"3708942","SEMIMAJOR_AXIS":"6917.901","SITE":"AFETR","MEAN_ELEMENT_THEORY":"SGP4","ECCENTRICITY":"0.00018850","LAUNCH_DATE":"2022-03-03","NORAD_CAT_ID":"51853","REV_AT_EPOCH":"4519","MEAN_MOTION":"15.08833248","APOAPSIS":"541.070","INCLINATION":"53.2181","TLE_LINE1":"1 51853U 22022B   22352.17412534 -.00002335  00000-0 -12870-3 0  9997","REF_FRAME":"TEME","DECAY_DATE":null,"GP_ID":"220829138","OBJECT_NAME":"STARLINK-3539","TIME_SYSTEM":"UTC","OBJECT_ID":"2022-022B","CLASSIFICATION_TYPE":"U","MEAN_MOTION_DDOT":"0.0000000000000","ARG_OF_PERICENTER":"39.6178","TLE_LINE2":"2 51853  53.2181 265.2003 0001885  39.6178 320.4951 15.08833248 45193","COUNTRY_CODE":"US","CENTER_NAME":"EARTH","ELEMENT_SET_NO":"999","PERIAPSIS":"538.462","RA_OF_ASC_NODE":"265.2003"},{"GP_ID":"220869443","OBJECT_NAME":"STARLINK-3541","DECAY_DATE":null,"RA_OF_ASC_NODE":"262.2514","PERIAPSIS":"537.943","ELEMENT_SET_NO":"999","CENTER_NAME":"EARTH","COUNTRY_CODE":"US","TLE_LINE2":"2 51854  53.2172 262.2514 0002640  28.5406 331.5730 15.08832318 45352","ARG_OF_PERICENTER":"28.5406","MEAN_MOTION_DDOT":"0.0000000000000","CLASSIFICATION_TYPE":"U","OBJECT_ID":"2022-022C","TIME_SYSTEM":"UTC","SITE":"AFETR","SEMIMAJOR_AXIS":"6917.904","FILE":"3709623","RCS_SIZE":"LARGE","MEAN_MOTION_DOT":"0.00001369","EPHEMERIS_TYPE":"0","BSTAR":"0.00010411000000","EPOCH":"2022-12-18T19:54:00.302688","OBJECT_TYPE":"PAYLOAD","MEAN_ANOMALY":"331.5730","PERIOD":"95.438","REF_FRAME":"TEME","TLE_LINE1":"1 51854U 22022C   22352.82917017  .00001369  00000-0  10411-3 0  9999","INCLINATION":"53.2172","APOAPSIS":"541.595","MEAN_MOTION":"15.08832318","REV_AT_EPOCH":"4535","NORAD_CAT_ID":"51854","LAUNCH_DATE":"2022-03-03","ECCENTRICITY":"0.00026400","MEAN_ELEMENT_THEORY":"SGP4"},{"REF_FRAME":"TEME","TLE_LINE1":"1 51855U 22022D   22352.49060131 -.00000877  00000-0 -37000-4 0  9998","INCLINATION":"53.2186","APOAPSIS":"541.536","MEAN_MOTION":"15.08843831","REV_AT_EPOCH":"4525","NORAD_CAT_ID":"51855","LAUNCH_DATE":"2022-03-03","ECCENTRICITY":"0.00026060","MEAN_ELEMENT_THEORY":"SGP4","SITE":"AFETR","SEMIMAJOR_AXIS":"6917.869","FILE":"3708942","RCS_SIZE":"LARGE","MEAN_MOTION_DOT":"-0.00000877","BSTAR":"-0.00003700000000","EPHEMERIS_TYPE":"0","EPOCH":"2022-12-18T11:46:27.953184","OBJECT_TYPE":"PAYLOAD","MEAN_ANOMALY":"331.2356","PERIOD":"95.437","RA_OF_ASC_NODE":"263.7837","ELEMENT_SET_NO":"999","PERIAPSIS":"537.931","CENTER_NAME":"EARTH","COUNTRY_CODE":"US","TLE_LINE2":"2 51855  53.2186 263.7837 0002606  28.8780 331.2356 15.08843831 45254","ARG_OF_PERICENTER":"28.8780","MEAN_MOTION_DDOT":"0.0000000000000","CLASSIFICATION_TYPE":"U","OBJECT_ID":"2022-022D","TIME_SYSTEM":"UTC","GP_ID":"220827638","OBJECT_NAME":"STARLINK-3545","DECAY_DATE":null},{"MEAN_ELEMENT_THEORY":"SGP4","LAUNCH_DATE":"2022-03-03","ECCENTRICITY":"0.00018590","NORAD_CAT_ID":"51856","REV_AT_EPOCH":"4533","MEAN_MOTION":"15.08869580","APOAPSIS":"540.941","INCLINATION":"53.2162","TLE_LINE1":"1 51856U 22022E   22352.49428889  .00020665  00000-0  13116-2 0  9992","REF_FRAME":"TEME","PERIOD":"95.436","MEAN_ANOMALY":"311.5856","EPOCH":"2022-12-18T11:51:46.560096","OBJECT_TYPE":"PAYLOAD","EPHEMERIS_TYPE":"0","BSTAR":"0.00131160000000","MEAN_MOTION_DOT":"0.00020665","SEMIMAJOR_AXIS":"6917.790","FILE":"3708642","RCS_SIZE":"LARGE","SITE":"AFETR","TIME_SYSTEM":"UTC","OBJECT_ID":"2022-022E","MEAN_MOTION_DDOT":"0.0000000000000","CLASSIFICATION_TYPE":"U","ARG_OF_PERICENTER":"48.5296","TLE_LINE2":"2 51856  53.2162 263.7661 0001859  48.5296 311.5856 15.08869580 45338","COUNTRY_CODE":"US","CENTER_NAME":"EARTH","PERIAPSIS":"538.369","ELEMENT_SET_NO":"999","RA_OF_ASC_NODE":"263.7661","DECAY_DATE":null,"OBJECT_NAME":"STARLINK-3568","GP_ID":"220797582"},{"BSTAR":"0.00016782000000","EPHEMERIS_TYPE":"0","SITE":"AFETR","MEAN_MOTION_DOT":"0.00002383","SEMIMAJOR_AXIS":"6917.895","FILE":"3709623","RCS_SIZE":"LARGE","PERIOD":"95.438","OBJECT_TYPE":"PAYLOAD","EPOCH":"2022-12-18T17:57:26.120736","MEAN_ANOMALY":"304.3361","INCLINATION":"53.2168","MEAN_MOTION":"15.08835134","APOAPSIS":"541.012","REF_FRAME":"TEME","TLE_LINE1":"1 51857U 22022F   22352.74821899  .00002383  00000-0  16782-3 0  9999","LAUNCH_DATE":"2022-03-03","ECCENTRICITY":"0.00018090","NORAD_CAT_ID":"51857","MEAN_ELEMENT_THEORY":"SGP4","REV_AT_EPOCH":"4534","DECAY_DATE":null,"OBJECT_NAME":"STARLINK-3571","GP_ID":"220871191","CENTER_NAME":"EARTH","PERIAPSIS":"538.509","ELEMENT_SET_NO":"999","TLE_LINE2":"2 51857  53.2168 262.6216 0001809  55.7802 304.3361 15.08835134 45347","COUNTRY_CODE":"US","RA_OF_ASC_NODE":"262.6216","OBJECT_ID":"2022-022F","TIME_SYSTEM":"UTC","ARG_OF_PERICENTER":"55.7802","MEAN_MOTION_DDOT":"0.0000000000000","CLASSIFICATION_TYPE":"U"},{"DECAY_DATE":null,"GP_ID":"220869943","OBJECT_NAME":"STARLINK-3563","TIME_SYSTEM":"UTC","OBJECT_ID":"2022-022G","CLASSIFICATION_TYPE":"U","MEAN_MOTION_DDOT":"0.0000000000000","ARG_OF_PERICENTER":"46.7746","TLE_LINE2":"2 51858  53.2156 262.3114 0002007  46.7746 313.3413 15.08829928 45350","COUNTRY_CODE":"US","CENTER_NAME":"EARTH","ELEMENT_SET_NO":"999","PERIAPSIS":"538.388","RA_OF_ASC_NODE":"262.3114","PERIOD":"95.438","MEAN_ANOMALY":"313.3413","OBJECT_TYPE":"PAYLOAD","EPOCH":"2022-12-18T19:38:06.247104","EPHEMERIS_TYPE":"0","BSTAR":"-0.00009216000000","MEAN_MOTION_DOT":"-0.00001754","FILE":"3709623","SEMIMAJOR_AXIS":"6917.911","RCS_SIZE":"LARGE","SITE":"AFETR","MEAN_ELEMENT_THEORY":"SGP4","LAUNCH_DATE":"2022-03-03","ECCENTRICITY":"0.00020070","NORAD_CAT_ID":"51858","REV_AT_EPOCH":"4535","MEAN_MOTION":"15.08829928","APOAPSIS":"541.165","INCLINATION":"53.2156","TLE_LINE1":"1 51858U 22022G   22352.81812786 -.00001754  00000-0 -92160-4 0  9991","REF_FRAME":"TEME"},{"REV_AT_EPOCH":"4543","ECCENTRICITY":"0.00024940","LAUNCH_DATE":"2022-03-03","NORAD_CAT_ID":"51859","MEAN_ELEMENT_THEORY":"SGP4","REF_FRAME":"TEME","TLE_LINE1":"1 51859U 22022H   22352.43633198 -.00000728  00000-0 -27627-4 0  9994","INCLINATION":"53.2186","MEAN_MOTION":"15.08832645","APOAPSIS":"541.493","EPOCH":"2022-12-18T10:28:19.083072","OBJECT_TYPE":"PAYLOAD","MEAN_ANOMALY":"324.0840","PERIOD":"95.438","SITE":"AFETR","MEAN_MOTION_DOT":"-0.00000728","FILE":"3708942","RCS_SIZE":"LARGE","SEMIMAJOR_AXIS":"6917.903","BSTAR":"-0.00002762700000","EPHEMERIS_TYPE":"0","ARG_OF_PERICENTER":"36.0320","MEAN_MOTION_DDOT":"0.0000000000000","CLASSIFICATION_TYPE":"U","OBJECT_ID":"2022-022H","TIME_SYSTEM":"UTC","RA_OF_ASC_NODE":"254.0146","CENTER_NAME":"EARTH","ELEMENT_SET_NO":"999","PERIAPSIS":"538.043","TLE_LINE2":"2 51859  53.2186 254.0146 0002494  36.0320 324.0840 15.08832645 45439","COUNTRY_CODE":"US","OBJECT_NAME":"STARLINK-3560","GP_ID":"220828139","DECAY_DATE":null},{"MEAN_MOTION_DDOT":"0.0000000000000","CLASSIFICATION_TYPE":"U","ARG_OF_PERICENTER":"23.7143","TIME_SYSTEM":"UTC","OBJECT_ID":"2022-022J","RA_OF_ASC_NODE":"255.1711","COUNTRY_CODE":"US","TLE_LINE2":"2 51860  53.2175 255.1711 0002898  23.7143 336.3982 15.08838656 45355","ELEMENT_SET_NO":"999","PERIAPSIS":"537.745","CENTER_NAME":"EARTH","OBJECT_NAME":"STARLINK-3559","GP_ID":"220828390","DECAY_DATE":null,"REV_AT_EPOCH":"4535","MEAN_ELEMENT_THEORY":"SGP4","NORAD_CAT_ID":"51860","LAUNCH_DATE":"2022-03-03","ECCENTRICITY":"0.00028980","TLE_LINE1":"1 51860U 22022J   22352.17872584 -.00000253  00000-0  22285-5 0  9999","REF_FRAME":"TEME","APOAPSIS":"541.754","MEAN_MOTION":"15.08838656","INCLINATION":"53.2175","MEAN_ANOMALY":"336.3982","OBJECT_TYPE":"PAYLOAD","EPOCH":"2022-12-18T04:17:21.912576","PERIOD":"95.438","FILE":"3708942","SEMIMAJOR_AXIS":"6917.884","RCS_SIZE":"LARGE","MEAN_MOTION_DOT":"-0.00000253","SITE":"AFETR","EPHEMERIS_TYPE":"0","BSTAR":"0.00000222850000"},{"OBJECT_TYPE":"PAYLOAD","EPOCH":"2022-12-18T10:17:42.009216","MEAN_ANOMALY":"331.8385","PERIOD":"95.438","SITE":"AFETR","FILE":"3708942","SEMIMAJOR_AXIS":"6917.893","RCS_SIZE":"LARGE","MEAN_MOTION_DOT":"0.00000544","EPHEMERIS_TYPE":"0","BSTAR":"0.00005231600000","REV_AT_EPOCH":"4530","NORAD_CAT_ID":"51861","LAUNCH_DATE":"2022-03-03","ECCENTRICITY":"0.00026300","MEAN_ELEMENT_THEORY":"SGP4","REF_FRAME":"TEME","TLE_LINE1":"1 51861U 22022K   22352.42895844  .00000544  00000-0  52316-4 0  9991","INCLINATION":"53.2160","APOAPSIS":"541.577","MEAN_MOTION":"15.08835850","GP_ID":"220829139","OBJECT_NAME":"STARLINK-3562","DECAY_DATE":null,"ARG_OF_PERICENTER":"28.2749","MEAN_MOTION_DDOT":"0.0000000000000","CLASSIFICATION_TYPE":"U","OBJECT_ID":"2022-022K","TIME_SYSTEM":"UTC","RA_OF_ASC_NODE":"254.0429","ELEMENT_SET_NO":"999","PERIAPSIS":"537.939","CENTER_NAME":"EARTH","COUNTRY_CODE":"US","TLE_LINE2":"2 51861  53.2160 254.0429 0002630  28.2749 331.8385 15.08835850 45305"},{"MEAN_MOTION_DOT":"-0.00001670","RCS_SIZE":"LARGE","FILE":"3708942","SEMIMAJOR_AXIS":"6917.891","SITE":"AFETR","BSTAR":"-0.00008685200000","EPHEMERIS_TYPE":"0","MEAN_ANOMALY":"329.7072","OBJECT_TYPE":"PAYLOAD","EPOCH":"2022-12-18T10:33:35.970624","PERIOD":"95.438","TLE_LINE1":"1 51862U 22022L   22352.43999966 -.00001670  00000-0 -86852-4 0  9998","REF_FRAME":"TEME","MEAN_MOTION":"15.08836408","APOAPSIS":"541.495","INCLINATION":"53.2180","REV_AT_EPOCH":"4544","MEAN_ELEMENT_THEORY":"SGP4","LAUNCH_DATE":"2022-03-03","ECCENTRICITY":"0.00025130","NORAD_CAT_ID":"51862","OBJECT_NAME":"STARLINK-3508","GP_ID":"220827889","DECAY_DATE":null,"RA_OF_ASC_NODE":"254.0133","TLE_LINE2":"2 51862  53.2180 254.0133 0002513  30.4065 329.7072 15.08836408 45440","COUNTRY_CODE":"US","CENTER_NAME":"EARTH","PERIAPSIS":"538.018","ELEMENT_SET_NO":"999","MEAN_MOTION_DDOT":"0.0000000000000","CLASSIFICATION_TYPE":"U","ARG_OF_PERICENTER":"30.4065","TIME_SYSTEM":"UTC","OBJECT_ID":"2022-022L"}];
